STARLINK-35243          
1 66016U 25232M   26068.50496592  .00024746  00000+0  84492-3 0  9997
2 66016  53.1590 105.0214 0001232  98.0949 262.0192 15.30197658 23400
2025-313BE              
1 67482U 25313BE  26068.69721505  .00077178  00000+0  26504-2 0  9996
2 67482  97.3989 145.3568 0007208 335.3714  24.7181 15.29801687  7972
